[{"OBJECT_NAME":"STARLINK-32625","OBJECT_ID":"2024-224R","EPOCH":"2026-03-09T06:40:55.950240","MEAN_MOTION":15.27602483,"ECCENTRICITY":0.00011143,"INCLINATION":42.9968,"RA_OF_ASC_NODE":160.7214,"ARG_OF_PERICENTER":290.1455,"MEAN_ANOMALY":69.9277,"EPHEMERIS_TYPE":0,"CLASSIFICATION_TYPE":"U","NORAD_CAT_ID":62154,"ELEMENT_SET_NO":999,"REV_AT_EPOCH":7230,"BSTAR":0.0013230736,"MEAN_MOTION_DOT":0.00036351,"MEAN_MOTION_DDOT":0},{"OBJECT_NAME":"TEVEL2-9","OBJECT_ID":"2025-052AD","EPOCH":"2026-03-09T16:51:18.321696","MEAN_MOTION":15.28633834,"ECCENTRICITY":0.000799,"INCLINATION":97.4057,"RA_OF_ASC_NODE":324.3929,"ARG_OF_PERICENTER":124.2475,"MEAN_ANOMALY":235.9522,"EPHEMERIS_TYPE":0,"CLASSIFICATION_TYPE":"U","NORAD_CAT_ID":63237,"ELEMENT_SET_NO":999,"REV_AT_EPOCH":5481,"BSTAR":0.00067240159,"MEAN_MOTION_DOT":0.00018694,"MEAN_MOTION_DDOT":0}]
